SHIYAN-1 (SY-1)         
1 28220U 04012A   26167.20499221  .00011162  00000+0  34447-3 0  9997
2 28220  97.8693 245.2092 0005672  36.1741 323.9882 15.33740196210944
SINAH 1                 
1 28893U 05043D   26167.16574883  .00000261  00000+0  59031-4 0  9996
2 28893  98.2859 301.4817 0013138 280.3065  79.6656 14.64157070100372
SKYSAT-A                
1 39418U 13066C   26166.86845653  .00002573  00000+0  14884-3 0  9991
2 39418  97.3813 216.3078 0020185 322.3608  37.6210 15.12970148688284
SKYSAT-B                
1 40072U 14037D   26166.98199020  .00001170  00000+0  13408-3 0  9994
2 40072  98.3839 125.8782 0004236 286.9589  73.1162 14.88025146645789
SENTINEL-3A             
1 41335U 16011A   26167.16460796  .00000096  00000+0  57660-4 0  9998
2 41335  98.6249 234.5629 0001396 102.3789 257.7548 14.26739739537910
SKYSAT-C1               
1 41601U 16040C   26167.04392882  .00007972  00000+0  22744-3 0  9997
2 41601  96.9556 198.8256 0003590  60.3015 299.8587 15.36285391557698
SENTINEL-5P             
1 42969U 17064A   26167.07410484  .00000035  00000+0  37658-4 0  9998
2 42969  98.7925 109.2132 0000962  84.5019 275.6267 14.19518793449408
SENTINEL-3B             
1 43437U 18039A   26167.06762832  .00000075  00000+0  49012-4 0  9999
2 43437  98.6250 234.6159 0000724  87.1563 272.9700 14.26734391423967
SENTINEL-6A             
1 46984U 20086A   26167.22664818 -.00000075  00000+0 -59675-4 0  9995
2 46984  66.0394 137.0474 0007943 270.2385  89.7720 12.80929950260205
SENTINEL-6B             
1 66514U 25264A   26167.22699622 -.00000072  00000+0 -46022-4 0  9999
2 66514  66.0395 137.1728 0008019 269.2141  90.7956 12.80929976 27047
