{
 "generated_at": "2026-06-16T10:08:45Z",
 "sources": [
  {
   "name": "CelesTrak",
   "url": "https://celestrak.org/NORAD/elements/",
   "license": "frei verfügbar; Attribution. Ursprünglich USSPACECOM/Space-Track."
  },
  {
   "name": "GCAT (J. McDowell, planet4589.org)",
   "url": "https://planet4589.org/space/gcat/",
   "license": "CC-BY 4.0"
  }
 ],
 "satellites": [
  {
   "norad": 41335,
   "name": "SENTINEL-3A",
   "intl": "2016-011A",
   "group": "resource",
   "gcat": {
    "class": "C",
    "category": "IMG",
    "owner": "COPERN/ESA",
    "state": "I-EU"
   },
   "omm": {
    "OBJECT_NAME": "SENTINEL-3A",
    "OBJECT_ID": "2016-011A",
    "EPOCH": "2026-06-16T03:57:02.127744",
    "MEAN_MOTION": 14.26739739,
    "ECCENTRICITY": 0.0001396,
    "INCLINATION": 98.6249,
    "RA_OF_ASC_NODE": 234.5629,
    "ARG_OF_PERICENTER": 102.3789,
    "MEAN_ANOMALY": 257.7548,
    "EPHEMERIS_TYPE": 0,
    "CLASSIFICATION_TYPE": "U",
    "NORAD_CAT_ID": 41335,
    "ELEMENT_SET_NO": 999,
    "REV_AT_EPOCH": 53791,
    "BSTAR": 0.00005766,
    "MEAN_MOTION_DOT": 9.6e-7,
    "MEAN_MOTION_DDOT": 0
   }
  },
  {
   "norad": 43437,
   "name": "SENTINEL-3B",
   "intl": "2018-039A",
   "group": "resource",
   "gcat": {
    "class": "C",
    "category": "IMG",
    "owner": "COPERN/ESA",
    "state": "I-EU"
   },
   "omm": {
    "OBJECT_NAME": "SENTINEL-3B",
    "OBJECT_ID": "2018-039A",
    "EPOCH": "2026-06-16T01:37:23.086848",
    "MEAN_MOTION": 14.26734391,
    "ECCENTRICITY": 0.0000724,
    "INCLINATION": 98.625,
    "RA_OF_ASC_NODE": 234.6159,
    "ARG_OF_PERICENTER": 87.1563,
    "MEAN_ANOMALY": 272.97,
    "EPHEMERIS_TYPE": 0,
    "CLASSIFICATION_TYPE": "U",
    "NORAD_CAT_ID": 43437,
    "ELEMENT_SET_NO": 999,
    "REV_AT_EPOCH": 42396,
    "BSTAR": 0.000049012,
    "MEAN_MOTION_DOT": 7.5e-7,
    "MEAN_MOTION_DDOT": 0
   }
  },
  {
   "norad": 42969,
   "name": "SENTINEL-5P",
   "intl": "2017-064A",
   "group": "resource",
   "gcat": {
    "class": "C",
    "category": "IMG",
    "owner": "COPERN/ESA",
    "state": "I-EU"
   },
   "omm": {
    "OBJECT_NAME": "SENTINEL-5P",
    "OBJECT_ID": "2017-064A",
    "EPOCH": "2026-06-16T01:46:42.658176",
    "MEAN_MOTION": 14.19518793,
    "ECCENTRICITY": 0.0000962,
    "INCLINATION": 98.7925,
    "RA_OF_ASC_NODE": 109.2132,
    "ARG_OF_PERICENTER": 84.5019,
    "MEAN_ANOMALY": 275.6267,
    "EPHEMERIS_TYPE": 0,
    "CLASSIFICATION_TYPE": "U",
    "NORAD_CAT_ID": 42969,
    "ELEMENT_SET_NO": 999,
    "REV_AT_EPOCH": 44940,
    "BSTAR": 0.000037658,
    "MEAN_MOTION_DOT": 3.5e-7,
    "MEAN_MOTION_DDOT": 0
   }
  },
  {
   "norad": 46984,
   "name": "SENTINEL-6A",
   "intl": "2020-086A",
   "group": "resource",
   "gcat": {
    "class": "C",
    "category": "EOSCI",
    "owner": "COPERN/ESA",
    "state": "I-EU"
   },
   "omm": {
    "OBJECT_NAME": "SENTINEL-6A",
    "OBJECT_ID": "2020-086A",
    "EPOCH": "2026-06-16T05:26:22.402752",
    "MEAN_MOTION": 12.8092995,
    "ECCENTRICITY": 0.0007943,
    "INCLINATION": 66.0394,
    "RA_OF_ASC_NODE": 137.0474,
    "ARG_OF_PERICENTER": 270.2385,
    "MEAN_ANOMALY": 89.772,
    "EPHEMERIS_TYPE": 0,
    "CLASSIFICATION_TYPE": "U",
    "NORAD_CAT_ID": 46984,
    "ELEMENT_SET_NO": 999,
    "REV_AT_EPOCH": 26020,
    "BSTAR": -0.000059675,
    "MEAN_MOTION_DOT": -7.5e-7,
    "MEAN_MOTION_DDOT": 0
   }
  },
  {
   "norad": 66514,
   "name": "SENTINEL-6B",
   "intl": "2025-264A",
   "group": "resource",
   "gcat": {
    "class": "C",
    "category": "EOSCI",
    "owner": "COPERN/ESA",
    "state": "I-EU"
   },
   "omm": {
    "OBJECT_NAME": "SENTINEL-6B",
    "OBJECT_ID": "2025-264A",
    "EPOCH": "2026-06-16T05:26:52.473408",
    "MEAN_MOTION": 12.80929976,
    "ECCENTRICITY": 0.0008019,
    "INCLINATION": 66.0395,
    "RA_OF_ASC_NODE": 137.1728,
    "ARG_OF_PERICENTER": 269.2141,
    "MEAN_ANOMALY": 90.7956,
    "EPHEMERIS_TYPE": 0,
    "CLASSIFICATION_TYPE": "U",
    "NORAD_CAT_ID": 66514,
    "ELEMENT_SET_NO": 999,
    "REV_AT_EPOCH": 2704,
    "BSTAR": -0.000046022,
    "MEAN_MOTION_DOT": -7.2e-7,
    "MEAN_MOTION_DDOT": 0
   }
  },
  {
   "norad": 28220,
   "name": "SHIYAN-1 (SY-1)",
   "intl": "2004-012A",
   "group": "resource",
   "gcat": {
    "class": null,
    "category": null,
    "owner": null,
    "state": null
   },
   "omm": {
    "OBJECT_NAME": "SHIYAN-1 (SY-1)",
    "OBJECT_ID": "2004-012A",
    "EPOCH": "2026-06-16T04:55:11.326944",
    "MEAN_MOTION": 15.33740196,
    "ECCENTRICITY": 0.0005672,
    "INCLINATION": 97.8693,
    "RA_OF_ASC_NODE": 245.2092,
    "ARG_OF_PERICENTER": 36.1741,
    "MEAN_ANOMALY": 323.9882,
    "EPHEMERIS_TYPE": 0,
    "CLASSIFICATION_TYPE": "U",
    "NORAD_CAT_ID": 28220,
    "ELEMENT_SET_NO": 999,
    "REV_AT_EPOCH": 21094,
    "BSTAR": 0.00034447,
    "MEAN_MOTION_DOT": 0.00011162,
    "MEAN_MOTION_DDOT": 0
   }
  },
  {
   "norad": 28893,
   "name": "SINAH 1",
   "intl": "2005-043D",
   "group": "resource",
   "gcat": {
    "class": null,
    "category": null,
    "owner": null,
    "state": null
   },
   "omm": {
    "OBJECT_NAME": "SINAH 1",
    "OBJECT_ID": "2005-043D",
    "EPOCH": "2026-06-16T03:58:40.698912",
    "MEAN_MOTION": 14.6415707,
    "ECCENTRICITY": 0.0013138,
    "INCLINATION": 98.2859,
    "RA_OF_ASC_NODE": 301.4817,
    "ARG_OF_PERICENTER": 280.3065,
    "MEAN_ANOMALY": 79.6656,
    "EPHEMERIS_TYPE": 0,
    "CLASSIFICATION_TYPE": "U",
    "NORAD_CAT_ID": 28893,
    "ELEMENT_SET_NO": 999,
    "REV_AT_EPOCH": 10037,
    "BSTAR": 0.000059031,
    "MEAN_MOTION_DOT": 0.00000261,
    "MEAN_MOTION_DDOT": 0
   }
  },
  {
   "norad": 39418,
   "name": "SKYSAT-A",
   "intl": "2013-066C",
   "group": "resource",
   "gcat": {
    "class": "B",
    "category": "IMG",
    "owner": "SKYBOX",
    "state": "US"
   },
   "omm": {
    "OBJECT_NAME": "SKYSAT-A",
    "OBJECT_ID": "2013-066C",
    "EPOCH": "2026-06-15T20:50:34.644192",
    "MEAN_MOTION": 15.12970148,
    "ECCENTRICITY": 0.0020185,
    "INCLINATION": 97.3813,
    "RA_OF_ASC_NODE": 216.3078,
    "ARG_OF_PERICENTER": 322.3608,
    "MEAN_ANOMALY": 37.621,
    "EPHEMERIS_TYPE": 0,
    "CLASSIFICATION_TYPE": "U",
    "NORAD_CAT_ID": 39418,
    "ELEMENT_SET_NO": 999,
    "REV_AT_EPOCH": 68828,
    "BSTAR": 0.00014884,
    "MEAN_MOTION_DOT": 0.00002573,
    "MEAN_MOTION_DDOT": 0
   }
  },
  {
   "norad": 40072,
   "name": "SKYSAT-B",
   "intl": "2014-037D",
   "group": "resource",
   "gcat": {
    "class": "B",
    "category": "IMG",
    "owner": "SKYBOX",
    "state": "US"
   },
   "omm": {
    "OBJECT_NAME": "SKYSAT-B",
    "OBJECT_ID": "2014-037D",
    "EPOCH": "2026-06-15T23:34:03.953280",
    "MEAN_MOTION": 14.88025146,
    "ECCENTRICITY": 0.0004236,
    "INCLINATION": 98.3839,
    "RA_OF_ASC_NODE": 125.8782,
    "ARG_OF_PERICENTER": 286.9589,
    "MEAN_ANOMALY": 73.1162,
    "EPHEMERIS_TYPE": 0,
    "CLASSIFICATION_TYPE": "U",
    "NORAD_CAT_ID": 40072,
    "ELEMENT_SET_NO": 999,
    "REV_AT_EPOCH": 64578,
    "BSTAR": 0.00013408,
    "MEAN_MOTION_DOT": 0.0000117,
    "MEAN_MOTION_DDOT": 0
   }
  },
  {
   "norad": 41601,
   "name": "SKYSAT-C1",
   "intl": "2016-040C",
   "group": "resource",
   "gcat": {
    "class": "B",
    "category": "IMG",
    "owner": "TBELLA",
    "state": "US"
   },
   "omm": {
    "OBJECT_NAME": "SKYSAT-C1",
    "OBJECT_ID": "2016-040C",
    "EPOCH": "2026-06-16T01:03:15.450048",
    "MEAN_MOTION": 15.36285391,
    "ECCENTRICITY": 0.000359,
    "INCLINATION": 96.9556,
    "RA_OF_ASC_NODE": 198.8256,
    "ARG_OF_PERICENTER": 60.3015,
    "MEAN_ANOMALY": 299.8587,
    "EPHEMERIS_TYPE": 0,
    "CLASSIFICATION_TYPE": "U",
    "NORAD_CAT_ID": 41601,
    "ELEMENT_SET_NO": 999,
    "REV_AT_EPOCH": 55769,
    "BSTAR": 0.00022744,
    "MEAN_MOTION_DOT": 0.00007972,
    "MEAN_MOTION_DDOT": 0
   }
  }
 ]
}
